#aV2011  9 17  0  0   .00000000      96 DD+AD WGS84 FIT  NGA
## 1653 518400.00000000   900.00000000 55821  .0000000000000
+   32     1  2  3  4  5  6  7  8  9 10 11 12 13 14 15 16 17
+         18 19 20 21 22 23 24 25 26 27 28 29 30 31 32  0  0
+          0  0  0  0  0  0  0  0  0  0  0  0  0  0  0  0  0
+          0  0  0  0  0  0  0  0  0  0  0  0  0  0  0  0  0
+          0  0  0  0  0  0  0  0  0  0  0  0  0  0  0  0  0
++         0  0  0  0  0  0  0  0  0  0  0  0  0  0  0  0  0
++         0  0  0  0  0  0  0  0  0  0  0  0  0  0  0  0  0
++         0  0  0  0  0  0  0  0  0  0  0  0  0  0  0  0  0
++         0  0  0  0  0  0  0  0  0  0  0  0  0  0  0  0  0
++         0  0  0  0  0  0  0  0  0  0  0  0  0  0  0  0  0
%c cc cc ccc ccc cccc cccc cccc cccc ccccc ccccc ccccc ccccc
%c cc cc ccc ccc cccc cccc cccc cccc ccccc ccccc ccccc ccccc
%f  0.0000000  0.000000000  0.00000000000  0.000000000000000
%f  0.0000000  0.000000000  0.00000000000  0.000000000000000
%i    0    0    0    0      0      0      0      0         0
%i    0    0    0    0      0      0      0      0         0
/*      NGA, ST. LOUIS,MO.                                  
/*   EPHEMERIS COMPUTED FROM  3 DAYS OF DATA                
/* CCCCCCCCCCCCCCCCCCCCCCCCCCCCCCCCCCCCCCCCCCCCCCCCCCCCCCCCC
/* CCCCCCCCCCCCCCCCCCCCCCCCCCCCCCCCCCCCCCCCCCCCCCCCCCCCCCCCC
*  2011  9 17 22 15   .00000000                                                 
P  1  22884.532059  13201.891365   2707.818306     -2.950861                    
V  1   1284.088514   4259.113587 -31507.679799      -.015654                    
P  2  -8839.422100 -19747.479819  15793.682784    356.581576                    
V  2  17614.344749   9255.609280  21034.960500       .018773                    
P  3    298.469088  17715.616738 -20151.707206    769.650978                    
V  3 -21618.871582  12273.910117  11012.873207       .050186                    
P  4   7234.973550 -13891.334888  21209.548417    234.309311                    
V  4  22933.945173  15298.111829   2511.686785       .111955                    
P  5  -2570.277469 -25587.288654  -6413.557586   -219.636909                    
V  5   3652.774710  -7902.700421  30230.651770      -.052575                    
P  6  -5517.753758  18271.828632 -18229.382185    -68.445487                    
V  6 -21701.302704   9498.610504  16215.449649       .089956                    
P  7  21550.948554   2358.615518 -15495.288718     27.257378                    
V  7  15109.236743  12526.180928  22671.422703       .018725                    
P  8  15840.245738  -4446.482332 -20949.371932      9.188021                    
V  8  20166.815763  17122.683697  11037.146594       .001033                    
P  9 -21369.518611 -15693.509323  -1857.557957    106.212131                    
V  9   2545.925532   -788.552457 -32172.624512       .023115                    
P 10   9589.640436 -22273.150274  10152.484570    -13.468034                    
V 10   1831.572404  13620.681642  27931.025704      -.011756                    
P 11  22368.192576  13403.036170  -6253.339804   -186.808562                    
V 11  -8613.379846   1679.390847 -28469.261673      -.033913                    
P 12 -12204.364371 -12858.244645  19840.508265     22.993763                    
V 12   3388.344448 -24866.283929 -13868.671061       .024050                    
P 13  24893.685201  -3227.217161   8675.345389    251.026803                    
V 13  -9830.170715   5548.476751  29721.568279      -.018489                    
P 14 -19614.847440  14974.523880   9792.272625    172.689980                    
V 14 -12071.958664   2698.799496 -28961.616624       .018441                    
P 15 -14288.262716  -9245.216426 -20422.413707   -105.900804                    
V 15  22793.720593 -12449.970130 -10132.577662       .015314                    
P 16   2720.883602  24917.231586  -8305.467993   -198.326245                    
V 16  -3584.876191  10278.524299  29914.506779      -.021618                    
P 17  19015.254824 -15691.398588   9705.842729    174.733900                    
V 17  12237.583048  -2449.496554 -28583.623812      -.015348                    
P 18 -15438.423425   7877.753988 -19692.939900    157.814380                    
V 18    852.846359 -25991.473164 -11249.407959       .018760                    
P 19  11095.713896  11710.533424 -21182.402613   -184.902783                    
V 19 -24908.436202   9850.892300  -7251.705020      -.040098                    
P 20  14122.455934  10839.840485  19584.321143     53.093770                    
V 20  -2447.435695  25190.967561 -12024.676321       .005264                    
P 21 -20486.738542    835.415667 -16758.718852   -172.121911                    
V 21 -16820.222227 -14289.016075  18751.867054      -.025041                    
P 22 -10927.539397  20955.550317 -11828.883550    144.465761                    
V 22  -1772.844526 -15657.836535 -25820.884124      -.001705                    
P 23  20915.850697   2901.609866  16351.114850    275.164974                    
V 23 -18025.992196  10044.703939  20944.608977      -.030767                    
P 24  21594.782210  15721.793494   1073.367828    424.740110                    
V 24   -762.494098   3118.762987 -31238.836801       .031643                    
P 25 -15133.739682    105.713362  21796.523617     19.201527                    
V 25   1745.119689 -27677.898265   1370.717514       .017758                    
P 26  -1725.948802 -15144.006224 -22308.176824   -160.553396                    
V 26  25262.211214  -9177.163741   4774.734887      -.127262                    
P 27 -19439.177309 -17071.149240  -6167.521229    306.270514                    
V 27   8270.299594   2973.064493 -30692.197463       .038579                    
P 28  12107.846774 -18156.133891 -14435.732135     68.336381                    
V 28   -317.835139  19430.970090 -24092.323001       .030886                    
P 29 -24722.834735   3765.341035   8951.546898    240.677389                    
V 29   9378.291300  -6777.261358  29006.433696       .032329                    
P 30 -13937.237004   9739.390907  20047.643636     84.067092                    
V 30  -1685.897413 -26257.492958  11366.245360      -.054934                    
P 31  -3518.189181  15258.519070  21620.493684    142.829365                    
V 31 -22326.538504 -15123.080354   7313.302660       .055045                    
P 32   8671.384034  19304.564135  16574.022877   -330.492992                    
V 32  -5011.611088  19842.334917 -20393.961440      -.065696                    
EOF
